{"ARG_OF_PERICENTER":238.8669,"BSTAR":4.5585e-4,"CLASSIFICATION_TYPE":"U","ECCENTRICITY":3.389e-4,"ELEMENT_SET_NO":999,"EPHEMERIS_TYPE":0,"EPOCH":"2026-04-05T06:50:09.612672","INCLINATION":51.6286,"MEAN_ANOMALY":121.1991,"MEAN_MOTION":15.58054408,"MEAN_MOTION_DDOT":0,"MEAN_MOTION_DOT":3.4554e-4,"NORAD_CAT_ID":66906,"OBJECT_ID":"1998-067XS","OBJECT_NAME":"DUPLEX","RA_OF_ASC_NODE":296.2512,"REV_AT_EPOCH":1927},{"ARG_OF_PERICENTER":256.2998,"BSTAR":0.0014686827,"CLASSIFICATION_TYPE":"U","ECCENTRICITY":7.4646e-4,"ELEMENT_SET_NO":999,"EPHEMERIS_TYPE":0,"EPOCH":"2026-04-05T13:27:59.922144","INCLINATION":51.6217,"MEAN_ANOMALY":103.7173,"MEAN_MOTION":15.80878139,"MEAN_MOTION_DDOT":0,"MEAN_MOTION_DOT":0.00300489,"NORAD_CAT_ID":66907,"OBJECT_ID":"1998-067XT","OBJECT_NAME":"ISS OBJECT XT","RA_OF_ASC_NODE":287.5441,"REV_AT_EPOCH":1941},{"ARG_OF_PERICENTER":255.7016,"BSTAR":0.0014908714,"CLASSIFICATION_TYPE":"U","ECCENTRICITY":7.5765e-4,"ELEMENT_SET_NO":999,"EPHEMERIS_TYPE":0,"EPOCH":"2026-04-05T13:20:22.791840","INCLINATION":51.6221,"MEAN_ANOMALY":104.3145,"MEAN_MOTION":15.8126187,"MEAN_MOTION_DDOT":0,"MEAN_MOTION_DOT":0.00310882,"NORAD_CAT_ID":66908,"OBJECT_ID":"1998-067XU","OBJECT_NAME":"ISS OBJECT XU","RA_OF_ASC_NODE":287.5051,"REV_AT_EPOCH":1941},{"ARG_OF_PERICENTER":262.9398,"BSTAR":0.0017021307,"CLASSIFICATION_TYPE":"U","ECCENTRICITY":9.3308e-4,"ELEMENT_SET_NO":999,"EPHEMERIS_TYPE":0,"EPOCH":"2026-04-05T13:00:23.126112","INCLINATION":51.6182,"MEAN_ANOMALY":97.0546,"MEAN_MOTION":15.88922443,"MEAN_MOTION_DDOT":1.0204584e-4,"MEAN_MOTION_DOT":0.00493552,"NORAD_CAT_ID":66909,"OBJECT_ID":"1998-067XV","OBJECT_NAME":"SILVERSAT","RA_OF_ASC_NODE":285.8891,"REV_AT_EPOCH":1943},{"ARG_OF_PERICENTER":246.0581,"BSTAR":0.0012620228,"CLASSIFICATION_TYPE":"U","ECCENTRICITY":7.4492e-4,"ELEMENT_SET_NO":999,"EPHEMERIS_TYPE":0,"EPOCH":"2026-04-04T19:36:47.567808","INCLINATION":51.6195,"MEAN_ANOMALY":113.9639,"MEAN_MOTION":15.78347512,"MEAN_MOTION_DDOT":0,"MEAN_MOTION_DOT":0.00228077,"NORAD_CAT_ID":66910,"OBJECT_ID":"1998-067XW","OBJECT_NAME":"ISS OBJECT XW","RA_OF_ASC_NODE":291.5715,"REV_AT_EPOCH":1929},{"ARG_OF_PERICENTER":271.0584,"BSTAR":0.0019309668,"CLASSIFICATION_TYPE":"U","ECCENTRICITY":0.00119207,"ELEMENT_SET_NO":999,"EPHEMERIS_TYPE":0,"EPOCH":"2026-04-05T13:35:47.572512","INCLINATION":51.6137,"MEAN_ANOMALY":88.906,"MEAN_MOTION":16.01150374,"MEAN_MOTION_DDOT":6.0875238e-4,"MEAN_MOTION_DOT":0.01084266,"NORAD_CAT_ID":66911,"OBJECT_ID":"1998-067XX","OBJECT_NAME":"ISS OBJECT XX","RA_OF_ASC_NODE":283.7512,"REV_AT_EPOCH":1945},{"ARG_OF_PERICENTER":249.4061,"BSTAR":0.0010619154,"CLASSIFICATION_TYPE":"U","ECCENTRICITY":5.2066e-4,"ELEMENT_SET_NO":999,"EPHEMERIS_TYPE":0,"EPOCH":"2026-04-05T13:36:31.104288","INCLINATION":51.6244,"MEAN_ANOMALY":110.6378,"MEAN_MOTION":15.69752347,"MEAN_MOTION_DDOT":0,"MEAN_MOTION_DOT":0.00130613,"NORAD_CAT_ID":66912,"OBJECT_ID":"1998-067XY","OBJECT_NAME":"ISS OBJECT XY","RA_OF_ASC_NODE":290.6177,"REV_AT_EPOCH":1936},{"ARG_OF_PERICENTER":285.0563,"BSTAR":7.0083459e-4,"CLASSIFICATION_TYPE":"U","ECCENTRICITY":0.00108174,"ELEMENT_SET_NO":999,"EPHEMERIS_TYPE":0,"EPOCH":"2026-04-05T13:28:54.264288","INCLINATION":51.6318,"MEAN_ANOMALY":74.923,"MEAN_MOTION":15.54221784,"MEAN_MOTION_DDOT":0,"MEAN_MOTION_DOT":4.6448e-4,"NORAD_CAT_ID":67683,"OBJECT_ID":"1998-067XZ","OBJECT_NAME":"KNACKSAT-2","RA_OF_ASC_NODE":298.1018,"REV_AT_EPOCH":896},{"ARG_OF_PERICENTER":276.0904,"BSTAR":0.0012635585,"CLASSIFICATION_TYPE":"U","ECCENTRICITY":0.00137093,"ELEMENT_SET_NO":999,"EPHEMERIS_TYPE":0,"EPOCH":"2026-04-05T14:22:56.670528","INCLINATION":51.6286,"MEAN_ANOMALY":83.8527,"MEAN_MOTION":15.59334849,"MEAN_MOTION_DDOT":0,"MEAN_MOTION_DOT":0.00102754,"NORAD_CAT_ID":67684,"OBJECT_ID":"1998-067YA","OBJECT_NAME":"CORAL","RA_OF_ASC_NODE":296.8523,"REV_AT_EPOCH":898},{"ARG_OF_PERICENTER":282.576,"BSTAR":7.6761918e-4,"CLASSIFICATION_TYPE":"U","ECCENTRICITY":0.00125806,"ELEMENT_SET_NO":999,"EPHEMERIS_TYPE":0,"EPOCH":"2026-04-05T13:10:16.974048","INCLINATION":51.6303,"MEAN_ANOMALY":77.3823,"MEAN_MOTION":15.54864526,"MEAN_MOTION_DDOT":0,"MEAN_MOTION_DOT":5.2226e-4,"NORAD_CAT_ID":67685,"OBJECT_ID":"1998-067YB","OBJECT_NAME":"GXIBA-1","RA_OF_ASC_NODE":298.0165,"REV_AT_EPOCH":896},{"ARG_OF_PERICENTER":257.2725,"BSTAR":9.1269099e-4,"CLASSIFICATION_TYPE":"U","ECCENTRICITY":9.6021e-4,"ELEMENT_SET_NO":999,"EPHEMERIS_TYPE":0,"EPOCH":"2026-04-05T14:14:11.419872","INCLINATION":51.63,"MEAN_ANOMALY":102.7193,"MEAN_MOTION":15.56037325,"MEAN_MOTION_DDOT":0,"MEAN_MOTION_DOT":6.4965e-4,"NORAD_CAT_ID":67686,"OBJECT_ID":"1998-067YC","OBJECT_NAME":"UITMSAT-2","RA_OF_ASC_NODE":297.565,"REV_AT_EPOCH":897},{"ARG_OF_PERICENTER":256.2021,"BSTAR":8.0536e-4,"CLASSIFICATION_TYPE":"U","ECCENTRICITY":9.085e-4,"ELEMENT_SET_NO":999,"EPHEMERIS_TYPE":0,"EPOCH":"2026-04-04T18:48:25.578432","INCLINATION":51.631,"MEAN_ANOMALY":103.7959,"MEAN_MOTION":15.54504888,"MEAN_MOTION_DDOT":0,"MEAN_MOTION_DOT":5.4021e-4,"NORAD_CAT_ID":67687,"OBJECT_ID":"1998-067YD","OBJECT_NAME":"HMU-SAT2","RA_OF_ASC_NODE":301.9093,"REV_AT_EPOCH":876},{"ARG_OF_PERICENTER":257.8791,"BSTAR":8.3628795e-4,"CLASSIFICATION_TYPE":"U","ECCENTRICITY":9.3086e-4,"ELEMENT_SET_NO":999,"EPHEMERIS_TYPE":0,"EPOCH":"2026-04-05T14:27:14.971968","INCLINATION":51.6301,"MEAN_ANOMALY":102.1158,"MEAN_MOTION":15.55505012,"MEAN_MOTION_DDOT":0,"MEAN_MOTION_DOT":5.8264e-4,"NORAD_CAT_ID":67688,"OBJECT_ID":"1998-067YE","OBJECT_NAME":"LEOPARD","RA_OF_ASC_NODE":297.6258,"REV_AT_EPOCH":889},{"ARG_OF_PERICENTER":274.8255,"BSTAR":1.6419769e-4,"CLASSIFICATION_TYPE":"U","ECCENTRICITY":6.3514e-4,"ELEMENT_SET_NO":999,"EPHEMERIS_TYPE":0,"EPOCH":"2026-04-05T13:16:46.804800","INCLINATION":51.6328,"MEAN_ANOMALY":85.2008,"MEAN_MOTION":15.4878698,"MEAN_MOTION_DDOT":0,"MEAN_MOTION_DOT":8.543e-5,"NORAD_CAT_ID":67796,"OBJECT_ID":"2026-031A","OBJECT_NAME":"CREW DRAGON 12","RA_OF_ASC_NODE":299.5432,"REV_AT_EPOCH":56047},{"ARG_OF_PERICENTER":274.8255,"BSTAR":1.6419769e-4,"CLASSIFICATION_TYPE":"U","ECCENTRICITY":6.3514e-4,"ELEMENT_SET_NO":999,"EPHEMERIS_TYPE":0,"EPOCH":"2026-04-05T13:16:46.804800","INCLINATION":51.6328,"MEAN_ANOMALY":85.2008,"MEAN_MOTION":15.4878698,"MEAN_MOTION_DDOT":0,"MEAN_MOTION_DOT":8.543e-5,"NORAD_CAT_ID":68319,"OBJECT_ID":"2026-058A","OBJECT_NAME":"PROGRESS-MS 33","RA_OF_ASC_NODE":299.5432,"REV_AT_EPOCH":189}